STARLINK-5116           
1 54014U 22125BC  22288.58334491 -.00025990  00000+0 -18178-3 0  9999
2 54014  53.2243  43.9539 0002051  39.0424 196.5610 15.73140222  1891
STARLINK-5055           
1 54015U 22125BD  22288.58334491 -.00556735  00000+0 -41877-2 0  9997
2 54015  53.2201  43.9463 0001494  17.9123 219.0528 15.73438293  1890
FALCON 9 DEB            
1 54016U 22125BE  22288.44134810  .00300271  44999-4  89618-3 0  9992
2 54016  53.2332  44.2337 0009472 324.9486  35.0918 15.91861860  1829
FALCON 9 DEB            
1 54017U 22125BF  22288.50120526  .00336001  54222-4  96076-3 0  9995
2 54017  53.2324  43.8950 0007305 325.6565  34.3991 15.92694993  1832
FALCON 9 DEB            
1 54018U 22125BG  22288.49436592  .00365070  63167-4  96710-3 0  9998
2 54018  53.2278  43.8429 0009981 302.2313  57.7748 15.94082499  1839
FALCON 9 DEB            
1 54019U 22125BH  22288.49285224  .00337760  55530-4  89363-3 0  9999
2 54019  53.2264  43.8304 0007826 287.1914  72.8258 15.94154656  1830
CENTISPACE-1 S5         
1 54020U 22126A   22288.47910765  .00006072  00000+0  13518-2 0  9999
2 54020  55.0001 155.3999 0012614 311.8596  48.1274 14.57928360  1161
CENTISPACE-1 S6         
1 54021U 22126B   22288.40926337  .00001638  00000+0  39181-3 0  9993
2 54021  54.9994 155.6631 0014497 310.7174  49.0841 14.58123940  1148
CZ-11H R/B              
1 54022U 22126C   22287.96101262  .00030505  00000+0  53104-3 0  9992
2 54022  56.1484 155.9704 0339708 326.5340  31.4626 15.06050147  1111
GAZELLE                 
1 54023U 22127A   22287.89290127 -.00000043  00000+0  00000+0 0  9993
2 54023  98.3144 287.0780 0012227 277.6923  82.2852 14.41642030  1033
ELECTRON KICK STAGE R/B 
1 54024U 22127B   22287.94740449  .00005652  00000+0  76466-3 0  9990
2 54024  98.2931 287.4587 0141561 359.3557   0.7446 14.72647892  1052
ELECTRON R/B            
1 54025U 22127C   22288.53729291  .00149727  67742-5  15011-2 0  9991
2 54025  98.3335 288.6897 0347560 192.0247 167.2532 15.16185067  1183
2022-128A               
1 54026U 22128A   22287.80000000 -.00000201  00000+0  00000+0 0  9993
2 54026  26.5320 192.1410 7254180 180.3880  46.4950  2.27885768   258
2022-128B               
1 54027U 22128B   22287.70000000 -.00000102  00000+0  00000+0 0  9993
2 54027  26.5810 191.7400 7060108 180.5950 346.6400  2.52590896   227
2022-128C               
1 54028U 22128C   22288.26336610 -.00000725  00000+0 -18779-3 0  9993
2 54028  26.8461 190.3937 5936648 183.3118 317.6436  4.11939615   252
ASO-S                   
1 54029U 22129A   22288.51703292 -.00001796  00000+0 -44411-3 0  9998
2 54029  98.2675 293.9193 0013564 247.0980 112.8845 14.50848586   945
CZ-2D R/B               
1 54030U 22129B   22287.94934071  .00000420  00000+0  10823-3 0  9998
2 54030  98.1945 293.2787 0019626  97.9051 262.4377 14.54800673   877
COSMOS 2559 [GLONASS-K] 
1 54031U 22130A   22287.39487059 -.00000090  00000+0  00000+0 0  9995
2 54031  64.7801   1.5135 0002004 330.3772  13.5624  2.12836767    88
FREGAT R/B              
1 54032U 22130B   22284.14949806 -.00000087  00000+0  00000+0 0  9995
2 54032  64.8932   1.6824 0035362 228.7163 143.8243  2.11225083    06
ANGOSAT 2               
1 54033U 22131A   22287.96853317  .00000046  00000+0  00000+0 0  9995
2 54033   0.0282 343.2286 0001831 106.4218   0.1604  0.98860320    32
HJ-2E                   
1 54035U 22132A   22288.58547429  .00013432  00000+0  56186-3 0  9994
2 54035  97.3948 294.1039 0011798 263.0999 247.5887 15.23642225   396
2022-132B               
1 54036U 22132B   22288.50751744  .00153387  00000+0  48761-2 0  9997
2 54036  97.3564 294.0496 0035273 318.3312 192.8291 15.31392192   388
2022-132C               
1 54037U 22132C   22288.49942296  .00016925  00000+0  16492-2 0  9992
2 54037  97.6509 293.8875 0189319 163.2758 197.4845 14.79991458   377
2022-132D               
1 54038U 22132D   22288.44344232  .00046645  00000+0  23155-2 0  9990
2 54038  97.5879 293.9505 0099636 225.0602 134.2582 15.13211562   372
CZ-2C R/B               
1 54039U 22132E   22288.52699584  .00005850  00000+0  30290-3 0  9995
2 54039  97.2512 293.7898 0047090 202.2081 273.9492 15.15600926   382
2022-132F               
1 54040U 22132F   22288.45393257  .00037924  00000+0  21359-2 0  9999
2 54040  97.1592 293.8838 0122982 215.3403 143.9669 15.06810047   371
2022-132G               
1 54041U 22132G   22288.48487182  .00019250  00000+0  16717-2 0  9998
2 54041  97.1914 293.8496 0151363 160.5877 200.1233 14.88553487   375
2022-133A               
1 54042U 22133A   22288.46084597 -.00000038  00000+0  00000+0 0  9991
2 54042  34.9981 282.5901 0009143 274.6884 222.4140 15.24413863   107
2022-133B               
1 54043U 22133B   22288.45940547 -.00000038  00000+0  00000+0 0  9997
2 54043  34.9976 282.5932 0009078 281.4606 208.2804 15.24649628   100
2022-133C               
1 54044U 22133C   22288.45951884 -.00000038  00000+0  00000+0 0  9994
2 54044  34.9988 282.5930 0009675 282.7517 207.7680 15.24719333   107
2022-133D               
1 54045U 22133D   22288.45930398 -.00000038  00000+0  00000+0 0  9992
2 54045  34.9992 282.5942 0009202 290.6891 199.1905 15.24958794   105
2022-133E               
1 54046U 22133E   22288.46056333 -.00000038  00000+0  00000+0 0  9992
2 54046  34.9973 282.5886 0008068 271.5630 223.5997 15.24251408   101
